{
    "links": {
        "self": "http://www.neowsapp.com/rest/v1/neo/54073328?api_key=iIulBulltgU6a56xZRHN4H3l9WmuAYTsLGpBGhQ2"
    },
    "id": "54073328",
    "neo_reference_id": "54073328",
    "name": "(2020 TX6)",
    "designation": "2020 TX6",
    "nasa_jpl_url": "http://ssd.jpl.nasa.gov/sbdb.cgi?sstr=54073328",
    "absolute_magnitude_h": 24.136,
    "estimated_diameter": {
        "kilometers": {
            "estimated_diameter_min": 0.0395689911,
            "estimated_diameter_max": 0.0884789538
        },
        "meters": {
            "estimated_diameter_min": 39.5689910553,
            "estimated_diameter_max": 88.4789538007
        },
        "miles": {
            "estimated_diameter_min": 0.0245870235,
            "estimated_diameter_max": 0.054978256
        },
        "feet": {
            "estimated_diameter_min": 129.8195286139,
            "estimated_diameter_max": 290.2852907876
        }
    },
    "is_potentially_hazardous_asteroid": false,
    "close_approach_data": [
        {
            "close_approach_date": "2020-10-20",
            "close_approach_date_full": "2020-Oct-20 13:05",
            "epoch_date_close_approach": 1603199100000,
            "relative_velocity": {
                "kilometers_per_second": "11.7366618066",
                "kilometers_per_hour": "42251.9825038954",
                "miles_per_hour": "26253.7387952676"
            },
            "miss_distance": {
                "astronomical": "0.2073406191",
                "lunar": "80.6555008299",
                "kilometers": "31017714.981841317",
                "miles": "19273514.3649794946"
            },
            "orbiting_body": "Earth"
        },
        {
            "close_approach_date": "2021-02-25",
            "close_approach_date_full": "2021-Feb-25 05:05",
            "epoch_date_close_approach": 1614229500000,
            "relative_velocity": {
                "kilometers_per_second": "12.3411445836",
                "kilometers_per_hour": "44428.1205010608",
                "miles_per_hour": "27605.9063191175"
            },
            "miss_distance": {
                "astronomical": "0.3302806342",
                "lunar": "128.4791667038",
                "kilometers": "49409279.378569154",
                "miles": "30701502.5582521652"
            },
            "orbiting_body": "Earth"
        }
    ],
    "orbital_data": {
        "orbit_id": "1",
        "orbit_determination_date": "2020-10-17 08:31:18",
        "first_observation_date": "2020-10-08",
        "last_observation_date": "2020-10-17",
        "data_arc_in_days": 9,
        "observations_used": 11,
        "orbit_uncertainty": "8",
        "minimum_orbit_intersection": ".184766",
        "jupiter_tisserand_invariant": "4.386",
        "epoch_osculation": "2459136.5",
        "eccentricity": ".3304768536928852",
        "semi_major_axis": "1.513216325855006",
        "inclination": "21.4723766899425",
        "ascending_node_longitude": "193.0376427638157",
        "orbital_period": "679.9076914304392",
        "perihelion_distance": "1.013133355529736",
        "perihelion_argument": "253.6758691213099",
        "aphelion_distance": "2.013299296180277",
        "perihelion_time": "2459205.588976495500",
        "mean_anomaly": "323.4185171724526",
        "mean_motion": ".5294836409963327",
        "equinox": "J2000",
        "orbit_class": {
            "orbit_class_type": "APO",
            "orbit_class_description": "Near-Earth asteroid orbits which cross the Earth’s orbit similar to that of 1862 Apollo",
            "orbit_class_range": "a (semi-major axis) > 1.0 AU; q (perihelion) < 1.017 AU"
        }
    },
    "is_sentry_object": false
}